satname,norad_id,inclination_deg,eccentricity,mean_motion_rev_per_day,perigee_km,apogee_km,l1,l2
STARLINK-1221,45227,53.0706,0.0003172,15.35125833,458.37753114156294,462.7159921199418,1 45227U 20012BB  25265.92893981  .00022226  00000+0  65176-3 0  9995,2 45227  53.0706 340.5243 0003172 186.4086 173.6876 15.35125833310884
STARLINK-1222,45228,53.0556,0.0001344,15.06394067,546.2989724983536,548.1605110785467,1 45228U 20012BC  25265.67956457  .00000190  00000+0  31651-4 0  9994,2 45228  53.0556  40.8437 0001344  89.9564 270.1579 15.06394067309965
STARLINK-1226,45229,53.055,0.0001561,15.06413428,546.0893628723088,548.2514438436374,1 45229U 20012BD  25266.10713907  .00005488  00000+0  38692-3 0  9991,2 45229  53.0550  38.9232 0001561 102.5747 257.5417 15.06413428310030
STARLINK-1227,45230,53.0555,0.0001435,15.06403836,546.2060153447428,548.1935870066809,1 45230U 20012BE  25266.10343932  .00005053  00000+0  35782-3 0  9995,2 45230  53.0555  38.9400 0001435  87.9800 272.1353 15.06403836310157
STARLINK-1238,45233,53.0396,0.0003483,16.00285168,271.31155216747993,275.9451719186791,1 45233U 20012BH  25266.25003472  .00602711  17302-3  11351-2 0  9992,2 45233  53.0396   3.9233 0003483 353.7619 114.2826 16.00285168  6060
STARLINK-1246,45235,53.0556,0.0001355,15.06397868,546.2797066039238,548.1564778339152,1 45235U 20012BK  25265.78645918  .00000727  00000+0  67724-4 0  9997,2 45235  53.0556  80.3648 0001355  94.0671 266.0473 15.06397868309558
STARLINK-1247,45236,53.0413,0.0002675,15.97949847,278.3265112895979,281.88867214616766,1 45236U 20012BL  25266.25003472  .00465312  10183-3  10012-2 0  9992,2 45236  53.0413 343.9421 0002675   2.0619  75.9582 15.97949847  5905
STARLINK-1270,45237,53.0563,0.0001177,15.06398304,546.4016418018118,548.0318700759599,1 45237U 20012BM  25265.65745503  .00002544  00000+0  18964-3 0  9996,2 45237  53.0563  40.9436 0001177  82.3319 277.7804 15.06398304310078
STARLINK-1279,45360,53.0552,0.0001415,15.06401836,546.2259948437068,548.1858668931427,1 45360U 20019A   25265.94772533  .00001719  00000+0  13426-3 0  9996,2 45360  53.0552 169.6407 0001415  79.3463 280.7686 15.06401836304857
STARLINK-1301,45361,53.0565,0.0001337,15.06378396,546.3518439230693,548.2036998330695,1 45361U 20019B   25266.13479792 -.00000511  00000+0 -15440-4 0  9990,2 45361  53.0565 178.8042 0001337  91.6363 268.4779 15.06378396304757
STARLINK-1306,45362,53.0515,0.0009326,15.56622067,391.1226711758436,403.76048033534244,1 45362U 20019C   25266.02532004  .00167148  00000+0  22616-2 0  9994,2 45362  53.0515 182.0832 0009326  91.3182 268.8897 15.56622067304699
STARLINK-1262,45366,53.0547,0.0001264,15.06388835,546.3704088835293,548.121145649623,1 45366U 20019G   25266.09976647  .00000928  00000+0  81218-4 0  9997,2 45366  53.0547 198.9560 0001264  91.4539 268.6594 15.06388835304477
STARLINK-1273,45367,53.0539,0.0001494,15.06394983,546.1922849915791,548.2615837351659,1 45367U 20019H   25266.18821885 -.00001385  00000+0 -74098-4 0  9999,2 45367  53.0539 198.5641 0001494  92.1326 267.9834 15.06394983304483
STARLINK-1276,45368,53.0552,0.0001354,15.06394931,546.2893994384804,548.1647880350638,1 45368U 20019J   25266.22508501 -.00000930  00000+0 -43569-4 0  9996,2 45368  53.0552 198.3965 0001354  95.9513 264.1630 15.06394931304497
STARLINK-1277,45369,53.0542,0.0001518,15.06394304,546.1777448517723,548.2802859740523,1 45369U 20019K   25266.01875168  .00001993  00000+0  15266-3 0  9990,2 45369  53.0542 199.9530 0001518  88.0926 272.0237 15.06394304304456
STARLINK-1281,45370,53.0545,0.0001469,15.06401677,546.1890852314473,548.223751127709,1 45370U 20019L   25266.08133176  .00003905  00000+0  28091-3 0  9990,2 45370  53.0545 199.0428 0001469 101.7785 258.3369 15.06401677304476
STARLINK-1300,45374,53.054,0.000136,15.06401658,546.2646296989415,548.1483231245256,1 45374U 20019Q   25266.23613982  .00001274  00000+0  10440-3 0  9995,2 45374  53.0540 198.3447 0001360  92.0150 268.0995 15.06401658304490
STARLINK-1302,45375,53.0542,0.0001367,15.06398926,546.2681539977084,548.1615451933885,1 45375U 20019R   25266.18453783  .00002365  00000+0  17758-3 0  9992,2 45375  53.0542 198.5799 0001367  90.7244 269.3902 15.06398926304485
STARLINK-1304,45376,53.0537,0.0001452,15.06397882,546.2124877576753,548.2236108639954,1 45376U 20019S   25266.13662544 -.00000710  00000+0 -28786-4 0  9993,2 45376  53.0537 198.7960 0001452  93.4134 266.7022 15.06397882304478
STARLINK-1305,45377,53.0533,0.0001407,15.06409754,546.2072711584633,548.1560558303709,1 45377U 20019T   25265.56530033  .00009351  00000+0  64568-3 0  9992,2 45377  53.0533 201.3578 0001407  81.8814 278.2335 15.06409754304395
STARLINK-1319,45379,53.0542,0.0001363,15.06390034,546.2981732896415,548.186031632973,1 45379U 20019V   25266.02235621  .00000773  00000+0  70785-4 0  9999,2 45379  53.0542 199.3098 0001363  78.7551 281.3591 15.06390034304461
STARLINK-1258,45381,53.0409,0.0004762,16.03442435,261.7302863711284,268.0571088075121,1 45381U 20019X   25266.09057934  .00620571  19203-3  97046-3 0  9999,2 45381  53.0409 122.3952 0004762 191.7032 168.3889 16.03442435305531
STARLINK-1266,45383,53.0542,0.0001415,15.06395284,546.2460729705826,548.2059507029326,1 45383U 20019Z   25266.02419613 -.00000876  00000+0 -39955-4 0  9999,2 45383  53.0542 179.3004 0001415  90.6276 269.4875 15.06395284304730
STARLINK-1267,45384,53.0544,0.0001372,15.06396678,546.2715801894865,548.1718986275791,1 45384U 20019AA  25266.07587908  .00001218  00000+0  10063-3 0  9995,2 45384  53.0544 179.7243 0001372  93.7371 266.3775 15.06396678304737
STARLINK-1272,45386,53.0547,0.0001297,15.06388634,546.3481710841934,548.1446155364174,1 45386U 20019AC  25266.08317093  .00000041  00000+0  21665-4 0  9998,2 45386  53.0547 179.0353 0001297  83.7073 276.4064 15.06388634304748
STARLINK-1274,45387,53.0349,0.000813,15.24850143,485.650662541424,496.820262165209,1 45387U 20019AD  25266.10297197  .00045147  00000+0  17949-2 0  9998,2 45387  53.0349 169.8084 0008130  77.7602 282.4305 15.24850143304879
STARLINK-1280,45388,53.0534,0.0001319,15.06395155,546.312951771858,548.139862638679,1 45388U 20019AE  25266.14031454  .00001254  00000+0  10306-3 0  9997,2 45388  53.0534 198.7782 0001319  86.6142 273.4998 15.06395155304462
STARLINK-1283,45389,53.055,0.0001144,15.06426442,546.3382675979565,547.922768806121,1 45389U 20019AF  25266.18636634  .00003757  00000+0  27075-3 0  9994,2 45389  53.0550 178.5679 0001144  90.9313 269.1807 15.06426442304764
STARLINK-1284,45390,53.0546,0.0001399,15.06397225,546.251205473558,548.1889203797637,1 45390U 20019AG  25266.02788617  .00002291  00000+0  17266-3 0  9991,2 45390  53.0546 179.2815 0001399  92.0573 268.0576 15.06397225304738
STARLINK-1292,45394,53.0492,0.0005149,15.73503471,345.42935554656196,352.35685114698845,1 45394U 20019AL  25266.25003472  .00191125  00000+0  13173-2 0  9996,2 45394  53.0492 149.5267 0005149 149.6068 117.5429 15.73503471  6019
STARLINK-1297,45395,53.055,0.0001168,15.06391669,546.428207677196,548.0459750649406,1 45395U 20019AM  25266.06475455 -.00000072  00000+0  14067-4 0  9996,2 45395  53.0550 179.1192 0001168  98.9251 261.1870 15.06391669303924
STARLINK-1307,45397,53.0543,0.0001611,15.06402514,546.0881804896735,548.3195253124777,1 45397U 20019AP  25265.46025229  .00001652  00000+0  12979-3 0  9994,2 45397  53.0543 181.8294 0001611  83.6366 276.4806 15.06402514304473
STARLINK-1312,45398,53.0478,0.0010615,15.71541629,347.343736707051,361.63710472122693,1 45398U 20019AQ  25266.25003472  .00242398  00000+0  17997-2 0  9997,2 45398  53.0478 148.9814 0010615  95.1537  17.3301 15.71541629  5849
STARLINK-1255,45399,53.054,0.0001427,15.06405217,546.207323673264,548.1838135883527,1 45399U 20019AR  25266.02513830  .00006818  00000+0  47611-3 0  9999,2 45399  53.0540 169.2984 0001427  92.7096 267.4057 15.06405217304688
STARLINK-1259,45403,53.0462,0.0008654,15.83935221,313.5285915544464,325.1205580481119,1 45403U 20019AV  25266.25003472  .00252192  00000+0  10761-2 0  9999,2 45403  53.0462 130.8134 0008654  94.8388 136.8423 15.83935221  5989
STARLINK-1260,45404,53.0541,0.0001487,15.06437979,546.0653781965202,548.1249422409701,1 45404U 20019AW  25266.05826304  .00006269  00000+0  43893-3 0  9990,2 45404  53.0541 169.1470 0001487  87.6580 272.4579 15.06437979304597
STARLINK-1263,45405,53.0549,0.0001581,15.06382383,546.1706458886947,548.3604581756472,1 45405U 20019AX  25266.10990514  .00001555  00000+0  12335-3 0  9992,2 45405  53.0549 168.9169 0001581  94.9232 265.1938 15.06382383304606
STARLINK-1265,45406,53.0545,0.0001502,15.06392485,546.1943996137888,548.2747812395537,1 45406U 20019AY  25266.11727035 -.00001745  00000+0 -98309-4 0  9999,2 45406  53.0545 168.8821 0001502  86.1119 274.0042 15.06392485304606
STARLINK-1278,45408,53.0548,0.0001471,15.06392798,546.2149090991043,548.2523531387797,1 45408U 20019BA  25266.07765026 -.00000038  00000+0  16321-4 0  9995,2 45408  53.0548 199.0605 0001471  90.7770 269.3387 15.06392798304185
STARLINK-1296,45412,53.054,0.0001822,15.06396493,545.9605059434016,548.4841068746573,1 45412U 20019BE  25265.45748939  .00000857  00000+0  76440-4 0  9991,2 45412  53.0540 171.8451 0001822  86.1104 274.0093 15.06396493304508
STARLINK-1298,45413,53.0511,0.0010474,15.42797701,430.7177164234945,444.99586021126197,1 45413U 20019BF  25266.08767224  .00116836  00000+0  25931-2 0  9992,2 45413  53.0511 156.3829 0010474 106.7834 253.4321 15.42797701304878
STARLINK-1309,45414,53.055,0.0001906,15.06396468,545.9024095323211,548.5423565291321,1 45414U 20019BG  25266.13569815  .00002463  00000+0  18420-3 0  9991,2 45414  53.0550 168.7960 0001906 101.3573 258.7631 15.06396468304592
STARLINK-1316,45415,53.0546,0.0001264,15.06404261,546.3231362107317,548.0738610247827,1 45415U 20019BH  25266.02881316  .00001042  00000+0  88819-4 0  9995,2 45415  53.0546 169.2767 0001264  78.1086 282.0045 15.06404261304619
